STARLINK-2620           
1 48453U 21040AB  26068.61827280  .00013618  00000+0  47094-3 0  9992
2 48453  53.1616 178.4535 0002071  50.3086 309.8098 15.30208340266673
TEVEL2-3                
1 63218U 25052J   26068.64540225  .00020365  00000+0  69446-3 0  9991
2 63218  97.3994 324.7775 0004761 105.7353 254.4413 15.30377031 54855
